{"type": "FeatureCollection", "features": [ {"type": "Feature", "properties": {"norad_id": 66052, "name": "HRC MONOBLOCK CAMERA", "group": "stations", "lat": -47.833904588450224, "lon": -41.71740815940611, "alt_km": 405.1604371123285, "timestamp": "2025-12-25T14:48:23.604121+00:00", "meta": {"OBJECT_NAME": "HRC MONOBLOCK CAMERA", "OBJECT_ID": "1998-067XR", "EPOCH": "2025-12-25T04:28:38.396064", "MEAN_MOTION": 15.54995284, "ECCENTRICITY": 0.00020993, "INCLINATION": 51.6301, "RA_OF_ASC_NODE": 79.4075, "ARG_OF_PERICENTER": 245.5071, "MEAN_ANOMALY": 114.5701, "EPHEMERIS_TYPE": 0, "CLASSIFICATION_TYPE": "U", "NORAD_CAT_ID": 66052, "ELEMENT_SET_NO": 999, "REV_AT_EPOCH": 1077, "BSTAR": 0.00053053215, "MEAN_MOTION_DOT": 0.00035933, "MEAN_MOTION_DDOT": 0}, "tle": {"line1": "1 66052U 98067XR  25359.18655551  .00035933  00000+0  53053-3 0  9990", "line2": "2 66052  51.6301  79.4075 0002099 245.5071 114.5701 15.54995284 10779"}}, "geometry": {"type": "Point", "coordinates": [-41.71740815940611, -47.833904588450224]}}, {"type": "Feature", "properties": {"norad_id": 66174, "name": "HTV-X1", "group": "stations", "lat": -51.229039329944264, "lon": -1.833948359957062, "alt_km": 419.8918986690951, "timestamp": "2025-12-25T14:48:23.604130+00:00", "meta": {"OBJECT_NAME": "HTV-X1", "OBJECT_ID": "2025-241A", "EPOCH": "2025-12-25T05:52:58.411200", "MEAN_MOTION": 15.49803499, "ECCENTRICITY": 0.00032029, "INCLINATION": 51.6316, "RA_OF_ASC_NODE": 80.5467, "ARG_OF_PERICENTER": 298.8467, "MEAN_ANOMALY": 61.22, "EPHEMERIS_TYPE": 0, "CLASSIFICATION_TYPE": "U", "NORAD_CAT_ID": 66174, "ELEMENT_SET_NO": 999, "REV_AT_EPOCH": 51, "BSTAR": 0.00025322562, "MEAN_MOTION_DOT": 0.00013923, "MEAN_MOTION_DDOT": 0}, "tle": {"line1": "1 66174U 25241A   25359.24512050  .00013923  00000+0  25323-3 0  9996", "line2": "2 66174  51.6316  80.5467 0003202 298.8467  61.2200 15.49803499   518"}}, "geometry": {"type": "Point", "coordinates": [-1.833948359957062, -51.229039329944264]}}, {"type": "Feature", "properties": {"norad_id": 66515, "name": "SZ-21 MODULE", "group": "stations", "lat": -31.848502187267798, "lon": 162.1409309750745, "alt_km": 381.61194663555125, "timestamp": "2025-12-25T14:48:23.604139+00:00", "meta": {"OBJECT_NAME": "SZ-21 MODULE", "OBJECT_ID": "2025-246C", "EPOCH": "2025-12-25T04:36:53.602848", "MEAN_MOTION": 15.63137538, "ECCENTRICITY": 0.00045892, "INCLINATION": 41.4767, "RA_OF_ASC_NODE": 300.0489, "ARG_OF_PERICENTER": 327.9877, "MEAN_ANOMALY": 32.0683, "EPHEMERIS_TYPE": 0, "CLASSIFICATION_TYPE": "U", "NORAD_CAT_ID": 66515, "ELEMENT_SET_NO": 999, "REV_AT_EPOCH": 639, "BSTAR": 0.00031272419, "MEAN_MOTION_DOT": 0.00029146, "MEAN_MOTION_DDOT": 0}, "tle": {"line1": "1 66515U 25246C   25359.19228707  .00029146  00000+0  31272-3 0  9991", "line2": "2 66515  41.4767 300.0489 0004589 327.9877  32.0683 15.63137538  6399"}}, "geometry": {"type": "Point", "coordinates": [162.1409309750745, -31.848502187267798]}}, {"type": "Feature", "properties": {"norad_id": 66645, "name": "SHENZHOU-22", "group": "stations", "lat": 7.981098726297498, "lon": 109.36397600188896, "alt_km": 381.9426891807734, "timestamp": "2025-12-25T14:48:23.604148+00:00", "meta": {"OBJECT_NAME": "SHENZHOU-22", "OBJECT_ID": "2025-272A", "EPOCH": "2025-12-25T04:52:13.170144", "MEAN_MOTION": 15.59668525, "ECCENTRICITY": 0.0008299, "INCLINATION": 41.4684, "RA_OF_ASC_NODE": 301.0153, "ARG_OF_PERICENTER": 140.7074, "MEAN_ANOMALY": 219.4368, "EPHEMERIS_TYPE": 0, "CLASSIFICATION_TYPE": "U", "NORAD_CAT_ID": 66645, "ELEMENT_SET_NO": 999, "REV_AT_EPOCH": 26598, "BSTAR": 0.00024182625, "MEAN_MOTION_DOT": 0.000196, "MEAN_MOTION_DDOT": 0}, "tle": {"line1": "1 66645U 25272A   25359.20293021  .00019600  00000+0  24183-3 0  9994", "line2": "2 66645  41.4684 301.0153 0008299 140.7074 219.4368 15.59668525265985"}}, "geometry": {"type": "Point", "coordinates": [109.36397600188896, 7.981098726297498]}}, {"type": "Feature", "properties": {"norad_id": 66664, "name": "SOYUZ-MS 28", "group": "stations", "lat": -51.22903910541855, "lon": -1.833945602135218, "alt_km": 419.891898635864, "timestamp": "2025-12-25T14:48:23.604157+00:00", "meta": {"OBJECT_NAME": "SOYUZ-MS 28", "OBJECT_ID": "2025-275A", "EPOCH": "2025-12-25T05:52:58.411200", "MEAN_MOTION": 15.49803499, "ECCENTRICITY": 0.00032029, "INCLINATION": 51.6316, "RA_OF_ASC_NODE": 80.5467, "ARG_OF_PERICENTER": 298.8467, "MEAN_ANOMALY": 61.22, "EPHEMERIS_TYPE": 0, "CLASSIFICATION_TYPE": "U", "NORAD_CAT_ID": 66664, "ELEMENT_SET_NO": 999, "REV_AT_EPOCH": 128, "BSTAR": 0.00025322562, "MEAN_MOTION_DOT": 0.00013923, "MEAN_MOTION_DDOT": 0}, "tle": {"line1": "1 66664U 25275A   25359.24512050  .00013923  00000+0  25323-3 0  9997", "line2": "2 66664  51.6316  80.5467 0003202 298.8467  61.2200 15.49803499  1287"}}, "geometry": {"type": "Point", "coordinates": [-1.833945602135218, -51.22903910541855]}}, {"type": "Feature", "properties": {"norad_id": 66906, "name": "1998-067XS", "group": "stations", "lat": 2.2956906815780265, "lon": 80.34402594985339, "alt_km": 413.6718534527554, "timestamp": "2025-12-25T14:48:23.604167+00:00", "meta": {"OBJECT_NAME": "1998-067XS", "OBJECT_ID": "1998-067XS", "EPOCH": "2025-12-25T05:31:02.274816", "MEAN_MOTION": 15.51241036, "ECCENTRICITY": 0.00027545, "INCLINATION": 51.6322, "RA_OF_ASC_NODE": 80.4463, "ARG_OF_PERICENTER": 265.4219, "MEAN_ANOMALY": 94.6456, "EPHEMERIS_TYPE": 0, "CLASSIFICATION_TYPE": "U", "NORAD_CAT_ID": 66906, "ELEMENT_SET_NO": 999, "REV_AT_EPOCH": 355, "BSTAR": 0.00049047062, "MEAN_MOTION_DOT": 0.000289, "MEAN_MOTION_DDOT": 0}, "tle": {"line1": "1 66906U 98067XS  25359.22988744  .00028900  00000+0  49047-3 0  9990", "line2": "2 66906  51.6322  80.4463 0002754 265.4219  94.6456 15.51241036  3555"}}, "geometry": {"type": "Point", "coordinates": [80.34402594985339, 2.2956906815780265]}}, {"type": "Feature", "properties": {"norad_id": 66907, "name": "1998-067XT", "group": "stations", "lat": 50.45744778861163, "lon": 152.03026046508313, "alt_km": 402.833460071045, "timestamp": "2025-12-25T14:48:23.604177+00:00", "meta": {"OBJECT_NAME": "1998-067XT", "OBJECT_ID": "1998-067XT", "EPOCH": "2025-12-24T10:39:56.166048", "MEAN_MOTION": 15.52879993, "ECCENTRICITY": 0.00038856, "INCLINATION": 51.6313, "RA_OF_ASC_NODE": 84.2012, "ARG_OF_PERICENTER": 298.2919, "MEAN_ANOMALY": 61.7678, "EPHEMERIS_TYPE": 0, "CLASSIFICATION_TYPE": "U", "NORAD_CAT_ID": 66907, "ELEMENT_SET_NO": 999, "REV_AT_EPOCH": 343, "BSTAR": 0.0010726177, "MEAN_MOTION_DOT": 0.00067981, "MEAN_MOTION_DDOT": 0}, "tle": {"line1": "1 66907U 98067XT  25358.44440007  .00067981  00000+0  10726-2 0  9992", "line2": "2 66907  51.6313  84.2012 0003885 298.2919  61.7678 15.52879993  3433"}}, "geometry": {"type": "Point", "coordinates": [152.03026046508313, 50.45744778861163]}}, {"type": "Feature", "properties": {"norad_id": 66908, "name": "1998-067XU", "group": "stations", "lat": 51.43210921226712, "lon": 161.84534361392986, "alt_km": 402.6309148192795, "timestamp": "2025-12-25T14:48:23.604186+00:00", "meta": {"OBJECT_NAME": "1998-067XU", "OBJECT_ID": "1998-067XU", "EPOCH": "2025-12-24T10:38:25.805472", "MEAN_MOTION": 15.52977314, "ECCENTRICITY": 0.00038638, "INCLINATION": 51.6323, "RA_OF_ASC_NODE": 84.1936, "ARG_OF_PERICENTER": 296.7785, "MEAN_ANOMALY": 63.2809, "EPHEMERIS_TYPE": 0, "CLASSIFICATION_TYPE": "U", "NORAD_CAT_ID": 66908, "ELEMENT_SET_NO": 999, "REV_AT_EPOCH": 343, "BSTAR": 0.0010585814, "MEAN_MOTION_DOT": 0.00067317, "MEAN_MOTION_DDOT": 0}, "tle": {"line1": "1 66908U 98067XU  25358.44335423  .00067317  00000+0  10586-2 0  9995", "line2": "2 66908  51.6323  84.1936 0003863 296.7785  63.2809 15.52977314  3438"}}, "geometry": {"type": "Point", "coordinates": [161.84534361392986, 51.43210921226712]}}, {"type": "Feature", "properties": {"norad_id": 66909, "name": "SILVERSAT", "group": "stations", "lat": 51.29986120495168, "lon": 176.86702546998723, "alt_km": 402.0824543784829, "timestamp": "2025-12-25T14:48:23.604195+00:00", "meta": {"OBJECT_NAME": "SILVERSAT", "OBJECT_ID": "1998-067XV", "EPOCH": "2025-12-24T12:08:54.950784", "MEAN_MOTION": 15.53202951, "ECCENTRICITY": 0.00038249, "INCLINATION": 51.631, "RA_OF_ASC_NODE": 83.8633, "ARG_OF_PERICENTER": 300.8028, "MEAN_ANOMALY": 59.2585, "EPHEMERIS_TYPE": 0, "CLASSIFICATION_TYPE": "U", "NORAD_CAT_ID": 66909, "ELEMENT_SET_NO": 999, "REV_AT_EPOCH": 344, "BSTAR": 0.0011617624, "MEAN_MOTION_DOT": 0.00074602, "MEAN_MOTION_DDOT": 0}, "tle": {"line1": "1 66909U 98067XV  25358.50619156  .00074602  00000+0  11618-2 0  9993", "line2": "2 66909  51.6310  83.8633 0003824 300.8028  59.2585 15.53202951  3445"}}, "geometry": {"type": "Point", "coordinates": [176.86702546998723, 51.29986120495168]}}, {"type": "Feature", "properties": {"norad_id": 66910, "name": "1998-067XW", "group": "stations", "lat": 49.37812445871673, "lon": -169.15458621099074, "alt_km": 402.9445148297964, "timestamp": "2025-12-25T14:48:23.604204+00:00", "meta": {"OBJECT_NAME": "1998-067XW", "OBJECT_ID": "1998-067XW", "EPOCH": "2025-12-25T05:05:39.018624", "MEAN_MOTION": 15.53228929, "ECCENTRICITY": 0.00038368, "INCLINATION": 51.6308, "RA_OF_ASC_NODE": 80.3284, "ARG_OF_PERICENTER": 278.3824, "MEAN_ANOMALY": 81.6731, "EPHEMERIS_TYPE": 0, "CLASSIFICATION_TYPE": "U", "NORAD_CAT_ID": 66910, "ELEMENT_SET_NO": 999, "REV_AT_EPOCH": 355, "BSTAR": 0.0010169127, "MEAN_MOTION_DOT": 0.00065225, "MEAN_MOTION_DDOT": 0}, "tle": {"line1": "1 66910U 98067XW  25359.21225716  .00065225  00000+0  10169-2 0  9990", "line2": "2 66910  51.6308  80.3284 0003836 278.3824  81.6731 15.53228929  3551"}}, "geometry": {"type": "Point", "coordinates": [-169.15458621099074, 49.37812445871673]}}]}